{"type": "FeatureCollection", "features": [ {"type": "Feature", "properties": {"norad_id": 31058, "name": "FENGYUN 1C DEB", "group": "fengyun-1c-debris", "lat": -35.239423842992835, "lon": -61.08438376450619, "alt_km": 706.1981290033818, "timestamp": "2025-12-09T09:46:47.926226+00:00", "meta": {"OBJECT_NAME": "FENGYUN 1C DEB", "OBJECT_ID": "1999-025BFC", "EPOCH": "2025-12-08T14:25:24.311712", "MEAN_MOTION": 14.76218072, "ECCENTRICITY": 0.0095083, "INCLINATION": 99.5657, "RA_OF_ASC_NODE": 291.1199, "ARG_OF_PERICENTER": 118.6638, "MEAN_ANOMALY": 242.4167, "EPHEMERIS_TYPE": 0, "CLASSIFICATION_TYPE": "U", "NORAD_CAT_ID": 31058, "ELEMENT_SET_NO": 999, "REV_AT_EPOCH": 99488, "BSTAR": 0.0015712, "MEAN_MOTION_DOT": 0.00011654, "MEAN_MOTION_DDOT": 0}, "tle": {"line1": "1 31058U 99025BFC 25342.60097583  .00011654  00000+0  15712-2 0  9990", "line2": "2 31058  99.5657 291.1199 0095083 118.6638 242.4167 14.76218072994882"}}, "geometry": {"type": "Point", "coordinates": [-61.08438376450619, -35.239423842992835]}}, {"type": "Feature", "properties": {"norad_id": 31062, "name": "FENGYUN 1C DEB", "group": "fengyun-1c-debris", "lat": -74.60139883817304, "lon": -49.13536024478849, "alt_km": 939.975335698633, "timestamp": "2025-12-09T09:46:47.926236+00:00", "meta": {"OBJECT_NAME": "FENGYUN 1C DEB", "OBJECT_ID": "1999-025BFG", "EPOCH": "2025-12-08T18:38:34.024416", "MEAN_MOTION": 13.75688586, "ECCENTRICITY": 0.01717436, "INCLINATION": 98.9968, "RA_OF_ASC_NODE": 165.3833, "ARG_OF_PERICENTER": 328.4179, "MEAN_ANOMALY": 48.9055, "EPHEMERIS_TYPE": 0, "CLASSIFICATION_TYPE": "U", "NORAD_CAT_ID": 31062, "ELEMENT_SET_NO": 999, "REV_AT_EPOCH": 94179, "BSTAR": 0.00045821902, "MEAN_MOTION_DOT": 4.51e-06, "MEAN_MOTION_DDOT": 0}, "tle": {"line1": "1 31062U 99025BFG 25342.77678269  .00000451  00000+0  45822-3 0  9998", "line2": "2 31062  98.9968 165.3833 0171743 328.4179  48.9055 13.75688586941797"}}, "geometry": {"type": "Point", "coordinates": [-49.13536024478849, -74.60139883817304]}}, {"type": "Feature", "properties": {"norad_id": 31064, "name": "FENGYUN 1C DEB", "group": "fengyun-1c-debris", "lat": -34.108157975767256, "lon": 140.31743030890584, "alt_km": 983.6736998511997, "timestamp": "2025-12-09T09:46:47.926247+00:00", "meta": {"OBJECT_NAME": "FENGYUN 1C DEB", "OBJECT_ID": "1999-025BFJ", "EPOCH": "2025-12-08T16:43:11.100864", "MEAN_MOTION": 14.22122105, "ECCENTRICITY": 0.02417838, "INCLINATION": 98.5734, "RA_OF_ASC_NODE": 325.4897, "ARG_OF_PERICENTER": 13.3545, "MEAN_ANOMALY": 165.0024, "EPHEMERIS_TYPE": 0, "CLASSIFICATION_TYPE": "U", "NORAD_CAT_ID": 31064, "ELEMENT_SET_NO": 999, "REV_AT_EPOCH": 97197, "BSTAR": 0.00072233563, "MEAN_MOTION_DOT": 2.109e-05, "MEAN_MOTION_DDOT": 0}, "tle": {"line1": "1 31064U 99025BFJ 25342.69665626  .00002109  00000+0  72234-3 0  9993", "line2": "2 31064  98.5734 325.4897 0241783  13.3545 165.0024 14.22122105971977"}}, "geometry": {"type": "Point", "coordinates": [140.31743030890584, -34.108157975767256]}}, {"type": "Feature", "properties": {"norad_id": 31065, "name": "FENGYUN 1C DEB", "group": "fengyun-1c-debris", "lat": 71.49227022049219, "lon": -23.801969445177935, "alt_km": 769.4611100039592, "timestamp": "2025-12-09T09:46:47.926258+00:00", "meta": {"OBJECT_NAME": "FENGYUN 1C DEB", "OBJECT_ID": "1999-025BFK", "EPOCH": "2025-12-06T07:27:19.187136", "MEAN_MOTION": 14.28133562, "ECCENTRICITY": 0.003548, "INCLINATION": 98.4659, "RA_OF_ASC_NODE": 359.6143, "ARG_OF_PERICENTER": 50.1744, "MEAN_ANOMALY": 310.2552, "EPHEMERIS_TYPE": 0, "CLASSIFICATION_TYPE": "U", "NORAD_CAT_ID": 31065, "ELEMENT_SET_NO": 999, "REV_AT_EPOCH": 64486, "BSTAR": 0.0016485265, "MEAN_MOTION_DOT": 4.087e-05, "MEAN_MOTION_DDOT": 0}, "tle": {"line1": "1 31065U 99025BFK 25340.31063874  .00004087  00000+0  16485-2 0  9990", "line2": "2 31065  98.4659 359.6143 0035480  50.1744 310.2552 14.28133562644861"}}, "geometry": {"type": "Point", "coordinates": [-23.801969445177935, 71.49227022049219]}}, {"type": "Feature", "properties": {"norad_id": 31068, "name": "FENGYUN 1C DEB", "group": "fengyun-1c-debris", "lat": -20.66162511322941, "lon": -31.00025657717599, "alt_km": 968.9072454567104, "timestamp": "2025-12-09T09:46:47.926269+00:00", "meta": {"OBJECT_NAME": "FENGYUN 1C DEB", "OBJECT_ID": "1999-025BFN", "EPOCH": "2025-12-08T16:50:26.088576", "MEAN_MOTION": 14.0918717, "ECCENTRICITY": 0.01655633, "INCLINATION": 98.6287, "RA_OF_ASC_NODE": 325.0408, "ARG_OF_PERICENTER": 129.6248, "MEAN_ANOMALY": 231.9669, "EPHEMERIS_TYPE": 0, "CLASSIFICATION_TYPE": "U", "NORAD_CAT_ID": 31068, "ELEMENT_SET_NO": 999, "REV_AT_EPOCH": 96298, "BSTAR": 0.00020953749, "MEAN_MOTION_DOT": 3.73e-06, "MEAN_MOTION_DDOT": 0}, "tle": {"line1": "1 31068U 99025BFN 25342.70169084  .00000373  00000+0  20954-3 0  9999", "line2": "2 31068  98.6287 325.0408 0165563 129.6248 231.9669 14.09187170962988"}}, "geometry": {"type": "Point", "coordinates": [-31.00025657717599, -20.66162511322941]}}, {"type": "Feature", "properties": {"norad_id": 31069, "name": "FENGYUN 1C DEB", "group": "fengyun-1c-debris", "lat": 59.028154674262325, "lon": -21.12601628489832, "alt_km": 633.9602449362401, "timestamp": "2025-12-09T09:46:47.926280+00:00", "meta": {"OBJECT_NAME": "FENGYUN 1C DEB", "OBJECT_ID": "1999-025BFP", "EPOCH": "2025-12-07T04:30:06.594048", "MEAN_MOTION": 14.57048672, "ECCENTRICITY": 0.01047006, "INCLINATION": 99.0995, "RA_OF_ASC_NODE": 140.963, "ARG_OF_PERICENTER": 94.1529, "MEAN_ANOMALY": 267.1641, "EPHEMERIS_TYPE": 0, "CLASSIFICATION_TYPE": "U", "NORAD_CAT_ID": 31069, "ELEMENT_SET_NO": 999, "REV_AT_EPOCH": 98605, "BSTAR": 0.0012606764, "MEAN_MOTION_DOT": 6.061e-05, "MEAN_MOTION_DDOT": 0}, "tle": {"line1": "1 31069U 99025BFP 25341.18757632  .00006061  00000+0  12607-2 0  9998", "line2": "2 31069  99.0995 140.9630 0104700  94.1529 267.1641 14.57048672986056"}}, "geometry": {"type": "Point", "coordinates": [-21.12601628489832, 59.028154674262325]}}, {"type": "Feature", "properties": {"norad_id": 31071, "name": "FENGYUN 1C DEB", "group": "fengyun-1c-debris", "lat": -80.93510054905659, "lon": 154.49349042651176, "alt_km": 688.0956604235926, "timestamp": "2025-12-09T09:46:47.926290+00:00", "meta": {"OBJECT_NAME": "FENGYUN 1C DEB", "OBJECT_ID": "1999-025BFR", "EPOCH": "2025-12-08T22:37:13.191456", "MEAN_MOTION": 14.52575216, "ECCENTRICITY": 0.005558, "INCLINATION": 99.0415, "RA_OF_ASC_NODE": 60.396, "ARG_OF_PERICENTER": 293.3951, "MEAN_ANOMALY": 66.1403, "EPHEMERIS_TYPE": 0, "CLASSIFICATION_TYPE": "U", "NORAD_CAT_ID": 31071, "ELEMENT_SET_NO": 999, "REV_AT_EPOCH": 65439, "BSTAR": 0.0013268422, "MEAN_MOTION_DOT": 5.486e-05, "MEAN_MOTION_DDOT": 0}, "tle": {"line1": "1 31071U 99025BFR 25342.94251379  .00005486  00000+0  13268-2 0  9997", "line2": "2 31071  99.0415  60.3960 0055580 293.3951  66.1403 14.52575216654396"}}, "geometry": {"type": "Point", "coordinates": [154.49349042651176, -80.93510054905659]}}, {"type": "Feature", "properties": {"norad_id": 31072, "name": "FENGYUN 1C DEB", "group": "fengyun-1c-debris", "lat": 78.78048565356505, "lon": -135.4247593776522, "alt_km": 650.9438481923498, "timestamp": "2025-12-09T09:46:47.926301+00:00", "meta": {"OBJECT_NAME": "FENGYUN 1C DEB", "OBJECT_ID": "1999-025BFS", "EPOCH": "2025-12-08T23:13:52.528512", "MEAN_MOTION": 14.25463681, "ECCENTRICITY": 0.02104909, "INCLINATION": 99.3326, "RA_OF_ASC_NODE": 348.1082, "ARG_OF_PERICENTER": 108.488, "MEAN_ANOMALY": 253.9298, "EPHEMERIS_TYPE": 0, "CLASSIFICATION_TYPE": "U", "NORAD_CAT_ID": 31072, "ELEMENT_SET_NO": 999, "REV_AT_EPOCH": 96589, "BSTAR": 0.00068041091, "MEAN_MOTION_DOT": 1.975e-05, "MEAN_MOTION_DDOT": 0}, "tle": {"line1": "1 31072U 99025BFS 25342.96796908  .00001975  00000+0  68041-3 0  9991", "line2": "2 31072  99.3326 348.1082 0210490 108.4880 253.9298 14.25463681965893"}}, "geometry": {"type": "Point", "coordinates": [-135.4247593776522, 78.78048565356505]}}, {"type": "Feature", "properties": {"norad_id": 31073, "name": "FENGYUN 1C DEB", "group": "fengyun-1c-debris", "lat": 76.71471319235356, "lon": 56.40238024700456, "alt_km": 833.6346319674931, "timestamp": "2025-12-09T09:46:47.926311+00:00", "meta": {"OBJECT_NAME": "FENGYUN 1C DEB", "OBJECT_ID": "1999-025BFT", "EPOCH": "2025-12-08T01:17:22.793856", "MEAN_MOTION": 14.24757918, "ECCENTRICITY": 0.00457014, "INCLINATION": 99.2207, "RA_OF_ASC_NODE": 191.5131, "ARG_OF_PERICENTER": 298.9936, "MEAN_ANOMALY": 60.6665, "EPHEMERIS_TYPE": 0, "CLASSIFICATION_TYPE": "U", "NORAD_CAT_ID": 31073, "ELEMENT_SET_NO": 999, "REV_AT_EPOCH": 97016, "BSTAR": 0.0017067499, "MEAN_MOTION_DOT": 3.973e-05, "MEAN_MOTION_DDOT": 0}, "tle": {"line1": "1 31073U 99025BFT 25342.05373604  .00003973  00000+0  17067-2 0  9997", "line2": "2 31073  99.2207 191.5131 0045701 298.9936  60.6665 14.24757918970169"}}, "geometry": {"type": "Point", "coordinates": [56.40238024700456, 76.71471319235356]}}, {"type": "Feature", "properties": {"norad_id": 31074, "name": "FENGYUN 1C DEB", "group": "fengyun-1c-debris", "lat": 24.34080469391978, "lon": 82.48555871480305, "alt_km": 875.980743134447, "timestamp": "2025-12-09T09:46:47.926322+00:00", "meta": {"OBJECT_NAME": "FENGYUN 1C DEB", "OBJECT_ID": "1999-025BFU", "EPOCH": "2025-12-08T05:52:14.706624", "MEAN_MOTION": 14.14172356, "ECCENTRICITY": 0.00887016, "INCLINATION": 98.9582, "RA_OF_ASC_NODE": 257.228, "ARG_OF_PERICENTER": 278.5236, "MEAN_ANOMALY": 80.5892, "EPHEMERIS_TYPE": 0, "CLASSIFICATION_TYPE": "U", "NORAD_CAT_ID": 31074, "ELEMENT_SET_NO": 999, "REV_AT_EPOCH": 95516, "BSTAR": 0.0032893959, "MEAN_MOTION_DOT": 6.469e-05, "MEAN_MOTION_DDOT": 0}, "tle": {"line1": "1 31074U 99025BFU 25342.24461466  .00006469  00000+0  32894-2 0  9991", "line2": "2 31074  98.9582 257.2280 0088701 278.5236  80.5892 14.14172356955163"}}, "geometry": {"type": "Point", "coordinates": [82.48555871480305, 24.34080469391978]}}]}